full_name,epoch_mjd,a,e,i,om,w,ma,n,moid,diameter
"       (2012 XJ134)",59396,2.566563994758187,.7378005235691288,2.463854856681569,237.1464078360979,124.3416611692213,40.21278595181964,.2397043568094368,.0141173,
"       (2012 YO1)",59396,1.824499377547125,.4899192152379183,17.46577910537808,85.82888512019086,312.6982858659959,179.636585662741,.399934154495145,.0425247,
"       (2012 YQ1)",59396,1.995922502866452,.564676324132427,5.154841653568567,120.1548628821406,42.07609755174824,349.887355492628,.3495333038141574,.00769693,
"       (2012 YO3)",59396,2.440764417194282,.6722182907060851,3.596131135013073,30.96677937295731,351.4041243756206,97.75592444487054,.2584730567803117,.0463967,
"       (2012 YY6)",59396,1.525081044980432,.6813205626536948,4.028833604519,22.62156716917995,317.7683941355123,215.1999285255151,.523316814248901,.0370502,
"       (2013 AN20)",59396,1.464647647298433,.3047583850086661,23.0681486352445,105.3577897227449,355.8465815000296,282.7821619948766,.556037825696321,.0359941,
"       (2013 AS27)",59396,1.104802341898437,.2284720106635516,33.58954997925625,105.2259999354349,253.422627866312,190.619587871113,.8487449331724647,.031599,
"       (2013 AX52)",59396,1.198116244333598,.1220670664022939,32.60193320380091,289.1196092000565,356.6439485543661,347.4917301879754,.7515461237679935,.0353949,
"       (2013 AN60)",59396,1.89382715235867,.5821738650446668,6.94700020332916,248.5436210403654,125.6539430638429,116.8914851035527,.3781756531071829,.0155817,
"       (2013 BC18)",59396,2.753312614098031,.7699609016676467,24.81398040259259,286.1948589663107,262.2731187359682,292.2995462724616,.2157350884993664,.0170375,
"       (2013 BD18)",59396,2.324609698394215,.6613106961666764,17.3066217862963,285.7389374503085,250.983952498073,125.6169445095538,.2780859235512012,.0469502,
"       (2013 BO76)",59396,1.702933989603512,.5196763076960101,1.939156725391111,242.6318854310394,4.470339330767404,222.3002186737264,.4435140201933896,.0283177,
"       (2013 EW27)",59396,2.457567440660341,.5944499515619619,24.18468243490583,302.1924654371899,205.6595167464168,54.26317010963012,.2558267225362825,.0471717,
"       (2013 ED28)",59396,1.550051849492518,.6664713027209204,4.885113867867276,152.9495704165461,258.5183692079973,138.7754853324296,.5107221992082225,.0005377,
"       (2013 ER89)",59396,1.695127596184695,.5357867524606672,26.98243801398469,.9550501357384465,283.6531144851655,231.6954496441652,.4465812476638389,.0477057,
"       (2013 EV108)",59396,2.396949529089031,.634135885793509,8.4161963715515,33.34133601400663,215.2604686002239,67.51624840337462,.2655924588579038,.0277712,
"       (2013 EO126)",59396,2.296758712657339,.7822709600547056,2.980633978363325,153.470977305128,148.5114259097216,115.5728474468559,.2831594206648516,.0401094,
"       (2013 FX7)",59396,1.265762537886322,.3097151515368994,5.21846396045874,211.5509190492956,28.84697326829522,259.7234125362579,.6921109446555473,.0457356,
"       (2013 FA8)",59396,1.928964989509313,.673597376214552,3.116034392382282,165.4625799265282,281.0124045148802,54.57314883787928,.3678896382330025,.00543002,
"       (2013 FW13)",59396,1.120333428575651,.3618799245092427,23.41306438341064,175.817477003622,272.3315795732209,50.53719067708227,.8311571244648089,.0125256,
"       (2013 GY7)",59396,1.246791113903955,.2306353398439256,29.57489879871914,189.9027279594837,128.6127433505687,220.6370891752455,.7079678342041374,.0294324,
"       (2013 GR38)",59396,1.790148503760138,.5564037115422379,4.587722226356778,218.670404286457,68.38900074465921,127.568122742975,.4115006107346256,.00337168,
"       (2013 GS66)",59396,2.010398434473136,.5841264160055503,2.439239594508854,204.2647857306283,273.4465064181844,337.5084590398577,.3457648710437448,.0218976,
"       (2013 GG69)",59396,2.685729845879106,.66984772042715,9.256198440886974,183.1865214869701,144.7024962017977,270.2004309366638,.2239291263861993,.022182,
"       (2013 GZ73)",59396,2.370731502631537,.6174444399209382,7.342167787373425,116.7744100119861,340.2153452099809,129.5107602670236,.270010415925563,.0337528,
"       (2013 GA80)",59396,1.173824984174433,.1534830343409332,32.18504538935094,29.11189880539675,133.1251138697314,197.0532112164832,.7749952673743286,.032953,
"       (2013 GH84)",59396,1.564547968224301,.3712788857257681,14.89943660076307,53.36347544111499,186.4366559617589,60.17280690081158,.5036406195509473,.0246038,
"       (2013 JM7)",59396,1.211144204595372,.273920864788822,4.958773948179977,242.4877478595488,154.8159079908306,235.8585200913795,.7394525157223634,.0444844,
"       (2013 JN7)",59396,1.720201489384798,.6398784812182656,2.255083486257441,297.5515047930116,167.4872884286781,264.180224111042,.4368527710419057,.0381628,
"       (2013 JM14)",59396,1.893800507225478,.510801273684675,8.111105569936434,109.5327509637985,44.32114196238881,69.40844146287786,.3781836343407279,.0208601,
"       (2013 JL22)",59396,1.187083548354726,.5944083405866913,3.063088339498601,37.9788355428367,69.06392069010766,152.04524965933,.7620476788874205,.00251754,
"       (2013 JR28)",59396,2.201762668781379,.6549091356614499,6.553790876529877,103.5716104243363,230.5237321540858,151.0331124595055,.3016812494016435,.0351542,
"       (2013 KZ1)",59396,1.562524068110673,.506742584331383,29.19661958623193,236.0316564312069,104.7048040955846,13.48388100041354,.5046194668513416,.0299423,
"       (2013 LE16)",59396,2.565303667143115,.607469046286119,32.82064542833894,81.77747366871773,198.1842868529062,336.6255460862129,.2398810277785497,.0106428,
"       (2013 LG16)",59396,1.599964882789392,.4081359958049702,11.14802681303182,232.80408906272,209.55202123,160.4042353550203,.4870105822289024,.00409295,
"       (2013 LM31)",59396,2.266594331601607,.6549211661649986,1.749722391367556,103.1712541668543,251.1325177932954,105.5804472985684,.2888307157035921,.00316836,
"       (2013 LN31)",59396,2.256506375574927,.8018512495661139,23.19878102287076,100.83693486,278.7201939415366,116.8212904828617,.2907697523161897,.0402414,
"       (2013 NV)",59396,.9584632602799846,.5111621563602702,29.28871219225796,275.6044441978599,227.8054133665756,257.5175575168367,1.050366515776584,.0391248,
"       (2013 NJ10)",59396,1.61293615015327,.4576515302376319,7.039274463545229,90.74773294491857,25.13135382232457,124.2277485073259,.4811475850395032,.0461965,
"       (2013 NF19)",59396,1.669782873672812,.6955374205379709,27.33557994082758,283.430207002712,262.9017062237939,275.4120577119253,.4567873521748327,.0386455,
"       (2013 ND24)",59396,2.047239706729601,.7427087235559108,3.636549395248396,295.197591382281,97.11840165899517,238.6151343996109,.3364736269549529,.000465234,
"       (2013 OD4)",59396,1.88596996377933,.7760791647252531,12.20381145766451,127.3993159757408,299.3183811131922,357.3167211839352,.3805414039978728,.0355693,
"       (2013 PV13)",59396,2.747417359887649,.6450368883374232,11.88958498130446,151.1425033144045,221.4744080152834,252.8981284120086,.2164298292456892,.0444801,
"       (2013 QR1)",59396,1.950325136572733,.7366384298678877,45.63292397513833,151.5486272460976,279.3570726008145,300.2965673713244,.3618624728257332,.0015127,
"       (2013 QU1)",59396,1.184025385631872,.249434982854626,35.24190684143893,149.1439313108945,55.22949403206934,129.0531777197397,.7650019693925163,.0148448,
"       (2013 QC11)",59396,1.510968540440769,.618760148586748,2.144790675238696,250.5710592674342,332.5884131933038,115.9786928358417,.53066560617283,.0311077,
"       (2013 RC32)",59396,2.480635352791111,.6301480248140863,2.995535459693289,46.6587540477615,2.554141178078263,349.6713371088917,.2522665575137374,.029902,
"       (2013 RZ73)",59396,1.368672646363073,.5338303365746334,25.12792015647873,355.56711672425,262.3392473011771,352.1365462416785,.6155377494017719,.0284122,
"       (2013 RH74)",59396,2.284581238263947,.5936239843535179,5.476724400772381,200.4144118958866,227.7827574577399,72.60974540693796,.2854264165100752,.0199156,
"       (2013 RJ74)",59396,2.813646717344099,.7226529354007812,22.4932327539455,348.1989855661794,124.5751341337311,208.214464564874,.2088332870742906,.0264596,
"       (2013 SW24)",59396,2.673879161917382,.6516579599436578,6.143492749920768,347.1567766297368,323.8729264898268,288.1309986852173,.2254194619461948,.000239088,
"       (2013 TR132)",59396,1.450351957966016,.361411808739541,31.96027239244993,35.39156552856129,330.0656721091115,165.1199978559628,.5642791006908331,.0319694,
"       (2013 TE135)",59396,2.362482187768194,.7586284901544084,6.053232590881782,182.2665645533979,103.1037948905008,61.33562618945825,.2714258832431602,.0231394,
"       (2013 TT135)",59396,2.145526213574266,.6013856464962435,6.487279371522326,341.4309948417181,327.2764375568859,181.5717035098934,.3136197009564987,.0368347,
"       (2013 TV135)",59396,2.425248312003756,.594447617816387,6.747884984716757,333.3673873158938,23.78108380507743,20.51879745870534,.2609574845519299,.00324388,
"       (2013 US3)",59396,1.202290467712642,.1853227988995114,12.31759602585766,39.56651570290275,134.140836886946,176.8750713480692,.7476355917839028,.0193382,
"       (2013 VO5)",59396,1.279630919694402,.6907746816811375,2.01739436333953,74.00178691834658,211.089145228085,137.3724399521507,.680890046919804,.0178376,
"       (2013 VY13)",59396,1.731448178692966,.5144644952956681,5.51906817575632,261.2226465930041,87.12808287871233,147.3918328903841,.4326032990628657,.0425777,
"       (2013 WR43)",59396,1.413127997030967,.3670988500584645,5.90306819373331,280.1827321473211,42.1792500522217,244.3018057297162,.5867212565894098,.023703,
"       (2013 WT44)",59396,2.259906481351518,.568187098064992,12.20601478851738,182.7280864240466,325.7944170081917,59.01949290946368,.2901137898023845,.0335888,0.653
"       (2013 WT45)",59396,1.63012402330823,.4671471681593632,9.339809030094315,33.0411542434621,122.0595497223403,194.2121643113012,.4735579178007017,.00769027,0.185
